{
  "type": "FeatureCollection",
  "features": [
    {
      "type": "Feature",
      "properties": {
        "norad_id": 67046,
        "name": "STARLINK-35721",
        "group": "last-30-days",
        "lat": -8.788425670098507,
        "lon": 95.64752899276635,
        "alt_km": 357.3129461288099,
        "timestamp": "2025-12-25T07:41:08.452141+00:00",
        "meta_object_name": "STARLINK-35721",
        "meta_object_id": "2025-294S",
        "meta_epoch": "2025-12-24T22:00:03.000096",
        "meta_mean_motion": 15.7238342,
        "meta_eccentricity": 0.00012798,
        "meta_inclination": 42.9999,
        "meta_ra_of_asc_node": 107.6336,
        "meta_arg_of_pericenter": 278.3165,
        "meta_mean_anomaly": 303.0475,
        "meta_ephemeris_type": 0,
        "meta_classification_type": "U",
        "meta_norad_cat_id": 67046,
        "meta_element_set_no": 999,
        "meta_rev_at_epoch": 226,
        "meta_bstar": -0.016328905,
        "meta_mean_motion_dot": -0.01976999,
        "meta_mean_motion_ddot": 0,
        "tle_line1": "1 67046U 25294S   25358.91670139 -.01976999  00000+0 -16329-1 0  9997",
        "tle_line2": "2 67046  42.9999 107.6336 0001279 278.3165 303.0475 15.72383420  2261"
      },
      "geometry": {
        "type": "Point",
        "coordinates": [
          95.64752899276635,
          -8.788425670098507
        ]
      }
    },
    {
      "type": "Feature",
      "properties": {
        "norad_id": 67047,
        "name": "STARLINK-35779",
        "group": "last-30-days",
        "lat": -7.246398409379894,
        "lon": 97.34927828758042,
        "alt_km": 357.25659488442125,
        "timestamp": "2025-12-25T07:41:08.452153+00:00",
        "meta_object_name": "STARLINK-35779",
        "meta_object_id": "2025-294T",
        "meta_epoch": "2025-12-24T22:00:03.000096",
        "meta_mean_motion": 15.7235875,
        "meta_eccentricity": 0.00013498,
        "meta_inclination": 42.9996,
        "meta_ra_of_asc_node": 107.6279,
        "meta_arg_of_pericenter": 276.4518,
        "meta_mean_anomaly": 307.2325,
        "meta_ephemeris_type": 0,
        "meta_classification_type": "U",
        "meta_norad_cat_id": 67047,
        "meta_element_set_no": 999,
        "meta_rev_at_epoch": 207,
        "meta_bstar": -0.016306821,
        "meta_mean_motion_dot": -0.01972842,
        "meta_mean_motion_ddot": 0,
        "tle_line1": "1 67047U 25294T   25358.91670139 -.01972842  00000+0 -16307-1 0  9997",
        "tle_line2": "2 67047  42.9996 107.6279 0001349 276.4518 307.2325 15.72358750  2071"
      },
      "geometry": {
        "type": "Point",
        "coordinates": [
          97.34927828758042,
          -7.246398409379894
        ]
      }
    },
    {
      "type": "Feature",
      "properties": {
        "norad_id": 67048,
        "name": "STARLINK-35905",
        "group": "last-30-days",
        "lat": -5.925155200533206,
        "lon": 98.79251738284063,
        "alt_km": 357.1574462777053,
        "timestamp": "2025-12-25T07:41:08.452163+00:00",
        "meta_object_name": "STARLINK-35905",
        "meta_object_id": "2025-294U",
        "meta_epoch": "2025-12-24T22:00:03.000096",
        "meta_mean_motion": 15.72356222,
        "meta_eccentricity": 0.00013017,
        "meta_inclination": 42.9998,
        "meta_ra_of_asc_node": 107.623,
        "meta_arg_of_pericenter": 276.1499,
        "meta_mean_anomaly": 309.4914,
        "meta_ephemeris_type": 0,
        "meta_classification_type": "U",
        "meta_norad_cat_id": 67048,
        "meta_element_set_no": 999,
        "meta_rev_at_epoch": 218,
        "meta_bstar": -0.016301847,
        "meta_mean_motion_dot": -0.01972082,
        "meta_mean_motion_ddot": 0,
        "tle_line1": "1 67048U 25294U   25358.91670139 -.01972082  00000+0 -16302-1 0  9999",
        "tle_line2": "2 67048  42.9998 107.6230 0001301 276.1499 309.4914 15.72356222  2186"
      },
      "geometry": {
        "type": "Point",
        "coordinates": [
          98.79251738284063,
          -5.925155200533206
        ]
      }
    },
    {
      "type": "Feature",
      "properties": {
        "norad_id": 67049,
        "name": "STARLINK-35877",
        "group": "last-30-days",
        "lat": -4.413937782630783,
        "lon": 100.4300303339662,
        "alt_km": 357.0560764654201,
        "timestamp": "2025-12-25T07:41:08.452173+00:00",
        "meta_object_name": "STARLINK-35877",
        "meta_object_id": "2025-294V",
        "meta_epoch": "2025-12-24T22:00:03.000096",
        "meta_mean_motion": 15.7234049,
        "meta_eccentricity": 0.00013224,
        "meta_inclination": 43.0002,
        "meta_ra_of_asc_node": 107.6174,
        "meta_arg_of_pericenter": 276.5064,
        "meta_mean_anomaly": 311.3872,
        "meta_ephemeris_type": 0,
        "meta_classification_type": "U",
        "meta_norad_cat_id": 67049,
        "meta_element_set_no": 999,
        "meta_rev_at_epoch": 226,
        "meta_bstar": -0.016341333,
        "meta_mean_motion_dot": -0.01975133,
        "meta_mean_motion_ddot": 0,
        "tle_line1": "1 67049U 25294V   25358.91670139 -.01975133  00000+0 -16341-1 0  9993",
        "tle_line2": "2 67049  43.0002 107.6174 0001322 276.5064 311.3872 15.72340490  2261"
      },
      "geometry": {
        "type": "Point",
        "coordinates": [
          100.4300303339662,
          -4.413937782630783
        ]
      }
    },
    {
      "type": "Feature",
      "properties": {
        "norad_id": 67050,
        "name": "STARLINK-36078",
        "group": "last-30-days",
        "lat": -2.8910065181571407,
        "lon": 102.06937411701351,
        "alt_km": 356.9760070621678,
        "timestamp": "2025-12-25T07:41:08.452183+00:00",
        "meta_object_name": "STARLINK-36078",
        "meta_object_id": "2025-294W",
        "meta_epoch": "2025-12-24T22:00:03.000096",
        "meta_mean_motion": 15.72319505,
        "meta_eccentricity": 0.0001335,
        "meta_inclination": 43,
        "meta_ra_of_asc_node": 107.6117,
        "meta_arg_of_pericenter": 275.7667,
        "meta_mean_anomaly": 314.3946,
        "meta_ephemeris_type": 0,
        "meta_classification_type": "U",
        "meta_norad_cat_id": 67050,
        "meta_element_set_no": 999,
        "meta_rev_at_epoch": 218,
        "meta_bstar": -0.016332709,
        "meta_mean_motion_dot": -0.01972648,
        "meta_mean_motion_ddot": 0,
        "tle_line1": "1 67050U 25294W   25358.91670139 -.01972648  00000+0 -16333-1 0  9994",
        "tle_line2": "2 67050  43.0000 107.6117 0001335 275.7667 314.3946 15.72319505  2181"
      },
      "geometry": {
        "type": "Point",
        "coordinates": [
          102.06937411701351,
          -2.8910065181571407
        ]
      }
    },
    {
      "type": "Feature",
      "properties": {
        "norad_id": 67051,
        "name": "STARLINK-35706",
        "group": "last-30-days",
        "lat": -1.3734800187014653,
        "lon": 103.69599558295731,
        "alt_km": 356.9165142484817,
        "timestamp": "2025-12-25T07:41:08.452193+00:00",
        "meta_object_name": "STARLINK-35706",
        "meta_object_id": "2025-294X",
        "meta_epoch": "2025-12-24T22:00:03.000096",
        "meta_mean_motion": 15.72299974,
        "meta_eccentricity": 0.00012831,
        "meta_inclination": 43.0001,
        "meta_ra_of_asc_node": 107.606,
        "meta_arg_of_pericenter": 274.0736,
        "meta_mean_anomaly": 318.3427,
        "meta_ephemeris_type": 0,
        "meta_classification_type": "U",
        "meta_norad_cat_id": 67051,
        "meta_element_set_no": 999,
        "meta_rev_at_epoch": 226,
        "meta_bstar": -0.016326492,
        "meta_mean_motion_dot": -0.0197048,
        "meta_mean_motion_ddot": 0,
        "tle_line1": "1 67051U 25294X   25358.91670139 -.01970480  00000+0 -16326-1 0  9999",
        "tle_line2": "2 67051  43.0001 107.6060 0001283 274.0736 318.3427 15.72299974  2265"
      },
      "geometry": {
        "type": "Point",
        "coordinates": [
          103.69599558295731,
          -1.3734800187014653
        ]
      }
    },
    {
      "type": "Feature",
      "properties": {
        "norad_id": 67052,
        "name": "STARLINK-35720",
        "group": "last-30-days",
        "lat": -0.030143499723699545,
        "lon": 105.13314925723166,
        "alt_km": 356.6693840641692,
        "timestamp": "2025-12-25T07:41:08.452204+00:00",
        "meta_object_name": "STARLINK-35720",
        "meta_object_id": "2025-294Y",
        "meta_epoch": "2025-12-24T22:00:03.000096",
        "meta_mean_motion": 15.72296492,
        "meta_eccentricity": 0.00013272,
        "meta_inclination": 43.0001,
        "meta_ra_of_asc_node": 107.6011,
        "meta_arg_of_pericenter": 279.2634,
        "meta_mean_anomaly": 315.1282,
        "meta_ephemeris_type": 0,
        "meta_classification_type": "U",
        "meta_norad_cat_id": 67052,
        "meta_element_set_no": 999,
        "meta_rev_at_epoch": 225,
        "meta_bstar": -0.016326561,
        "meta_mean_motion_dot": -0.01970261,
        "meta_mean_motion_ddot": 0,
        "tle_line1": "1 67052U 25294Y   25358.91670139 -.01970261  00000+0 -16327-1 0  9998",
        "tle_line2": "2 67052  43.0001 107.6011 0001327 279.2634 315.1282 15.72296492  2250"
      },
      "geometry": {
        "type": "Point",
        "coordinates": [
          105.13314925723166,
          -0.030143499723699545
        ]
      }
    }
  ]
}